IRIDIUM 144             
1 43249U 18030A   24242.63906096  .00000710  00000+0  24643-3 0  9996
2 43249  86.4001 204.7764 0001970  88.8058 271.3363 14.34222973336034
IRIDIUM 149             
1 43250U 18030B   24242.64540822  .00000825  00000+0  28760-3 0  9991
2 43250  86.4003 204.7482 0002202  92.0514 268.0934 14.34219592336050
IRIDIUM 157             
1 43251U 18030C   24242.59467590  .00001094  00000+0  38361-3 0  9993
2 43251  86.4023 204.8057 0004446  80.5771 279.5927 14.34219561336023
IRIDIUM 140             
1 43252U 18030D   24242.61369498  .00000429  00000+0  14621-3 0  9999
2 43252  86.4003 204.8142 0002000  81.2529 278.8893 14.34219823336081
IRIDIUM 145             
1 43253U 18030E   24242.94985094  .00001116  00000+0  39140-3 0  9999
2 43253  86.4005 204.6474 0001994  93.7188 266.4235 14.34221013336065
IRIDIUM 146             
1 43254U 18030F   24242.93081010  .00000454  00000+0  15489-3 0  9998
2 43254  86.4000 204.6700 0002175  88.0432 272.1013 14.34215469336071
IRIDIUM 148             
1 43255U 18030G   24242.62003808  .00000442  00000+0  15093-3 0  9992
2 43255  86.4004 204.8326 0002331  92.1558 267.9904 14.34219368336063
IRIDIUM 142             
1 43256U 18030H   24242.65809132  .00000561  00000+0  19329-3 0  9998
2 43256  86.4000 204.7297 0001939  93.0888 267.0530 14.34221590336038
